1 27844U 03031E 26161.99583856 .00000244 00000+0 12458-3 0 9993 
2 27844 98.6735 170.6324 0009111 196.3678 163.7208 14.24331910190791 
1 27848U 03031J 26161.55949117 .00000214 00000+0 11309-3 0 9996 
2 27848 98.6767 169.9197 0008636 217.5980 142.4596 14.23617305190431 
1 28895U 05043F 26161.67587716 .00001250 00000+0 20445-3 0 9992 
2 28895 98.2977 317.1612 0013240 222.2954 137.7233 14.72614047100792 
1 32785U 08021C 26162.21622426 .00004490 00000+0 28480-3 0 9999 
2 32785 97.8272 143.5105 0010316 56.6803 303.5412 15.09396423984292 
1 32790U 08021H 26161.90804251 .00003317 00000+0 23445-3 0 9991 
2 32790 97.8618 141.5635 0011752 69.1864 291.0620 15.05567204983866 
1 32791U 08021J 26162.25964504 .00015274 00000+0 48820-3 0 9998 
2 32791 97.7517 159.8749 0001967 23.1856 336.9473 15.32546772986382 
1 35932U 09051B 26162.21632553 .00000804 00000+0 16844-3 0 9998 
2 35932 98.4041 70.0006 0005629 224.4191 135.6559 14.62470076888283 
1 35933U 09051C 26162.22265768 .00000660 00000+0 14239-3 0 9996 
2 35933 98.3971 69.6549 0003964 240.4948 119.5857 14.61710634888311 
1 35935U 09051E 26162.20832687 .00000614 00000+0 13683-3 0 9997 
2 35935 98.4055 68.8386 0006131 256.4621 103.5895 14.60431670887864 
1 36799U 10035E 26162.10649308 .00018616 00000+0 61441-3 0 9991 
2 36799 98.0700 108.1166 0000502 172.8701 187.2545 15.31477785866770 
1 38767U 12048K 26162.07548027 .00340780 50567-4 10426-2 0 9990 
2 38767 64.6260 49.1927 0019614 217.7804 142.1981 15.91322494371680 
1 39090U 13009E 26161.72041886 .00000257 00000+0 10093-3 0 9995 
2 39090 98.3921 342.1141 0007478 247.3445 112.6951 14.37159492696131 
1 39091U 13009F 26162.07876360 .00000146 00000+0 64242-4 0 9991 
2 39091 98.3993 341.6658 0008983 257.1343 102.8840 14.36539653696178 
1 39151U 13018B 26160.89654302 .00002457 00000+0 23819-3 0 9997 
2 39151 98.1215 304.8067 0012551 181.9337 178.1836 14.93627979709615 
1 39269U 13055E 26161.26452525 .00012321 00000+0 20956-3 0 9993 
2 39269 80.9903 152.1156 0417121 216.0318 141.2122 14.91044989662183 
1 39270U 13055F 26161.24770905 .00010174 00000+0 23925-3 0 9991 
2 39270 81.0014 236.7086 0552745 91.1070 275.3476 14.55994863637548 
1 39417U 13066B 26162.14161212 .00003110 00000+0 24354-3 0 9990 
2 39417 97.8086 124.4456 0040187 268.8905 90.7715 15.01151583679829 
1 39423U 13066H 26161.96611314 .00000642 00000+0 12601-3 0 9998 
2 39423 97.7194 311.5642 0161735 251.3380 107.0203 14.58052276665827 
1 39427U 13066M 26162.28529501 .00001347 00000+0 16693-3 0 9992 
2 39427 97.8247 72.2264 0088365 253.5069 105.6421 14.81684162673216 
1 39430U 13066Q 26162.26179428 .00001813 00000+0 27627-3 0 9990 
2 39430 97.6495 3.0988 0130175 96.3401 265.2649 14.69437683669049 
1 39440U 13066AA 26162.30229726 .00003136 00000+0 29203-3 0 9995 
2 39440 97.8900 111.2555 0058932 48.0727 312.5496 14.93713369676117 
1 39441U 13066AB 26161.81489218 .00001727 00000+0 19320-3 0 9998 
2 39441 97.8887 101.0752 0067738 90.5941 270.3036 14.86590773675251 
1 39444U 13066AE 26162.15665586 .00005346 00000+0 33386-3 0 9992 
2 39444 97.8261 133.4764 0035086 221.9456 137.9084 15.09415537678753 
1 39446U 13066AG 26161.86573185 .00003903 00000+0 33679-3 0 9996 
2 39446 97.8684 117.8971 0048568 342.2797 17.6729 14.96973562676631 
1 40020U 14033L 26162.19454943 .00000573 00000+0 94016-4 0 9991 
2 40020 97.9731 291.2332 0077355 296.5409 62.7884 14.72668302641339 
1 40021U 14033M 26162.13545657 .00093384 00000+0 10061-2 0 9997 
2 40021 98.0470 220.4508 0004090 126.2071 233.9565 15.63383077654809 
1 40024U 14033Q 26162.06321277 .00014606 00000+0 48613-3 0 9997 
2 40024 98.0732 193.9089 0003810 179.4826 180.6418 15.31260888653047 
1 40025U 14033R 26162.28426033 .00006389 00000+0 31622-3 0 9999 
2 40025 98.0967 173.0166 0007277 238.4989 121.5533 15.18170156652134 
1 40032U 14033Y 26161.95812662 .00006103 00000+0 32985-3 0 9994 
2 40032 98.0750 158.4507 0007357 183.5273 176.5907 15.15079321651721 
1 40037U 14033AD 26162.24210512 .00000703 00000+0 69003-4 0 9990 
2 40037 97.9961 112.6618 0011255 326.7833 33.2680 14.95492956649890 
